[{"OBJECT_NAME":"T.MICROSAT-2","OBJECT_ID":"2026-067T","EPOCH":"2026-04-24T04:11:17.768544","MEAN_MOTION":15.16867846,"ECCENTRICITY":0.00039415,"INCLINATION":97.4535,"RA_OF_ASC_NODE":73.4128,"ARG_OF_PERICENTER":240.5857,"MEAN_ANOMALY":119.4984,"EPHEMERIS_TYPE":0,"CLASSIFICATION_TYPE":"U","NORAD_CAT_ID":68433,"ELEMENT_SET_NO":999,"REV_AT_EPOCH":374,"BSTAR":0.000224429,"MEAN_MOTION_DOT":4.352e-5,"MEAN_MOTION_DDOT":0},{"OBJECT_NAME":"TRANSPORTER-16 OBJECT U","OBJECT_ID":"2026-067U","EPOCH":"2026-04-24T08:24:09.656928","MEAN_MOTION":15.18215345,"ECCENTRICITY":0.00029023,"INCLINATION":97.4544,"RA_OF_ASC_NODE":73.6389,"ARG_OF_PERICENTER":123.3264,"MEAN_ANOMALY":236.8248,"EPHEMERIS_TYPE":0,"CLASSIFICATION_TYPE":"U","NORAD_CAT_ID":68434,"ELEMENT_SET_NO":999,"REV_AT_EPOCH":377,"BSTAR":0.00017538927,"MEAN_MOTION_DOT":3.521e-5,"MEAN_MOTION_DDOT":0},{"OBJECT_NAME":"ION SCV-019 (ASTOUNDING ALEXANDRA)","OBJECT_ID":"2026-067V","EPOCH":"2026-04-24T08:36:53.149536","MEAN_MOTION":15.1765318,"ECCENTRICITY":0.00014683,"INCLINATION":97.4513,"RA_OF_ASC_NODE":73.6186,"ARG_OF_PERICENTER":185.6276,"MEAN_ANOMALY":174.4942,"EPHEMERIS_TYPE":0,"CLASSIFICATION_TYPE":"U","NORAD_CAT_ID":68435,"ELEMENT_SET_NO":999,"REV_AT_EPOCH":377,"BSTAR":0.0001383261,"MEAN_MOTION_DOT":2.717e-5,"MEAN_MOTION_DDOT":0},{"OBJECT_NAME":"HAWK-14B","OBJECT_ID":"2026-067W","EPOCH":"2026-04-24T08:38:22.567488","MEAN_MOTION":15.17795123,"ECCENTRICITY":0.00015716,"INCLINATION":97.451,"RA_OF_ASC_NODE":73.6167,"ARG_OF_PERICENTER":186.7518,"MEAN_ANOMALY":173.3695,"EPHEMERIS_TYPE":0,"CLASSIFICATION_TYPE":"U","NORAD_CAT_ID":68436,"ELEMENT_SET_NO":999,"REV_AT_EPOCH":377,"BSTAR":0.00017577646,"MEAN_MOTION_DOT":3.486e-5,"MEAN_MOTION_DDOT":0},{"OBJECT_NAME":"TRANSPORTER-16 OBJECT X","OBJECT_ID":"2026-067X","EPOCH":"2026-04-23T15:06:10.938528","MEAN_MOTION":15.18133288,"ECCENTRICITY":0.00015849,"INCLINATION":97.4474,"RA_OF_ASC_NODE":72.8956,"ARG_OF_PERICENTER":168.1207,"MEAN_ANOMALY":192.0065,"EPHEMERIS_TYPE":0,"CLASSIFICATION_TYPE":"U","NORAD_CAT_ID":68437,"ELEMENT_SET_NO":999,"REV_AT_EPOCH":366,"BSTAR":0.00051258774,"MEAN_MOTION_DOT":0.00010402,"MEAN_MOTION_DDOT":0},{"OBJECT_NAME":"TRANSPORTER-16 OBJECT Y","OBJECT_ID":"2026-067Y","EPOCH":"2026-04-24T06:55:04.663488","MEAN_MOTION":15.18241674,"ECCENTRICITY":0.00020259,"INCLINATION":97.4489,"RA_OF_ASC_NODE":73.5511,"ARG_OF_PERICENTER":182.2953,"MEAN_ANOMALY":177.8273,"EPHEMERIS_TYPE":0,"CLASSIFICATION_TYPE":"U","NORAD_CAT_ID":68438,"ELEMENT_SET_NO":999,"REV_AT_EPOCH":376,"BSTAR":0.00071308951,"MEAN_MOTION_DOT":0.0001455,"MEAN_MOTION_DDOT":0},{"OBJECT_NAME":"TRANSPORTER-16 OBJECT Z","OBJECT_ID":"2026-067Z","EPOCH":"2026-04-24T08:34:22.329696","MEAN_MOTION":15.18006933,"ECCENTRICITY":0.00010272,"INCLINATION":97.4483,"RA_OF_ASC_NODE":73.6106,"ARG_OF_PERICENTER":181.7068,"MEAN_ANOMALY":178.4163,"EPHEMERIS_TYPE":0,"CLASSIFICATION_TYPE":"U","NORAD_CAT_ID":68439,"ELEMENT_SET_NO":999,"REV_AT_EPOCH":377,"BSTAR":0.00060714786,"MEAN_MOTION_DOT":0.00012291,"MEAN_MOTION_DDOT":0},{"OBJECT_NAME":"TRANSPORTER-16 OBJECT AA","OBJECT_ID":"2026-067AA","EPOCH":"2026-04-24T08:32:35.517696","MEAN_MOTION":15.1817445,"ECCENTRICITY":0.00011674,"INCLINATION":97.4482,"RA_OF_ASC_NODE":73.6115,"ARG_OF_PERICENTER":180.966,"MEAN_ANOMALY":179.1572,"EPHEMERIS_TYPE":0,"CLASSIFICATION_TYPE":"U","NORAD_CAT_ID":68440,"ELEMENT_SET_NO":999,"REV_AT_EPOCH":377,"BSTAR":0.00080008114,"MEAN_MOTION_DOT":0.00016306,"MEAN_MOTION_DDOT":0},{"OBJECT_NAME":"HAWK-14C","OBJECT_ID":"2026-067AB","EPOCH":"2026-04-24T08:38:41.268768","MEAN_MOTION":15.17791721,"ECCENTRICITY":7.369e-5,"INCLINATION":97.4453,"RA_OF_ASC_NODE":73.5859,"ARG_OF_PERICENTER":247.9948,"MEAN_ANOMALY":112.1208,"EPHEMERIS_TYPE":0,"CLASSIFICATION_TYPE":"U","NORAD_CAT_ID":68441,"ELEMENT_SET_NO":999,"REV_AT_EPOCH":377,"BSTAR":0.00015829767,"MEAN_MOTION_DOT":3.132e-5,"MEAN_MOTION_DDOT":0},{"OBJECT_NAME":"TRANSPORTER-16 OBJECT AC","OBJECT_ID":"2026-067AC","EPOCH":"2026-04-24T04:04:13.723392","MEAN_MOTION":15.17181669,"ECCENTRICITY":0.00025536,"INCLINATION":97.4504,"RA_OF_ASC_NODE":73.4095,"ARG_OF_PERICENTER":247.2647,"MEAN_ANOMALY":112.8317,"EPHEMERIS_TYPE":0,"CLASSIFICATION_TYPE":"U","NORAD_CAT_ID":68442,"ELEMENT_SET_NO":999,"REV_AT_EPOCH":374,"BSTAR":0.00024279043,"MEAN_MOTION_DOT":4.756e-5,"MEAN_MOTION_DDOT":0},{"OBJECT_NAME":"TRANSPORTER-16 OBJECT AD","OBJECT_ID":"2026-067AD","EPOCH":"2026-04-24T15:10:30.189504","MEAN_MOTION":15.17112536,"ECCENTRICITY":0.00027446,"INCLINATION":97.4511,"RA_OF_ASC_NODE":73.8647,"ARG_OF_PERICENTER":250.097,"MEAN_ANOMALY":109.9968,"EPHEMERIS_TYPE":0,"CLASSIFICATION_TYPE":"U","NORAD_CAT_ID":68443,"ELEMENT_SET_NO":999,"REV_AT_EPOCH":381,"BSTAR":0.00022615631,"MEAN_MOTION_DOT":4.417e-5,"MEAN_MOTION_DDOT":0},{"OBJECT_NAME":"TRANSPORTER-16 OBJECT AE","OBJECT_ID":"2026-067AE","EPOCH":"2026-04-24T08:24:44.233344","MEAN_MOTION":15.18229583,"ECCENTRICITY":0.00027026,"INCLINATION":97.4537,"RA_OF_ASC_NODE":73.6362,"ARG_OF_PERICENTER":127.4833,"MEAN_ANOMALY":232.6647,"EPHEMERIS_TYPE":0,"CLASSIFICATION_TYPE":"U","NORAD_CAT_ID":68444,"ELEMENT_SET_NO":999,"REV_AT_EPOCH":377,"BSTAR":0.0002474418,"MEAN_MOTION_DOT":4.997e-5,"MEAN_MOTION_DDOT":0},{"OBJECT_NAME":"TRANSPORTER-16 OBJECT AF","OBJECT_ID":"2026-067AF","EPOCH":"2026-04-23T17:04:13.473984","MEAN_MOTION":15.16940642,"ECCENTRICITY":0.00031297,"INCLINATION":97.4484,"RA_OF_ASC_NODE":72.9444,"ARG_OF_PERICENTER":266.2281,"MEAN_ANOMALY":93.8594,"EPHEMERIS_TYPE":0,"CLASSIFICATION_TYPE":"U","NORAD_CAT_ID":68445,"ELEMENT_SET_NO":999,"REV_AT_EPOCH":367,"BSTAR":0.00017254257,"MEAN_MOTION_DOT":3.337e-5,"MEAN_MOTION_DDOT":0},{"OBJECT_NAME":"HADES-SA (SPINNYONE)","OBJECT_ID":"2026-067AG","EPOCH":"2026-04-23T13:54:42.272352","MEAN_MOTION":15.17192733,"ECCENTRICITY":0.00046134,"INCLINATION":97.4374,"RA_OF_ASC_NODE":72.7854,"ARG_OF_PERICENTER":262.379,"MEAN_ANOMALY":97.692,"EPHEMERIS_TYPE":0,"CLASSIFICATION_TYPE":"U","NORAD_CAT_ID":68446,"ELEMENT_SET_NO":999,"REV_AT_EPOCH":364,"BSTAR":0.00071503901,"MEAN_MOTION_DOT":0.0001416,"MEAN_MOTION_DDOT":0},{"OBJECT_NAME":"TRANSPORTER-16 OBJECT AH","OBJECT_ID":"2026-067AH","EPOCH":"2026-04-24T08:27:07.766208","MEAN_MOTION":15.18160779,"ECCENTRICITY":0.00020571,"INCLINATION":97.4487,"RA_OF_ASC_NODE":73.6188,"ARG_OF_PERICENTER":125.4664,"MEAN_ANOMALY":234.6762,"EPHEMERIS_TYPE":0,"CLASSIFICATION_TYPE":"U","NORAD_CAT_ID":68447,"ELEMENT_SET_NO":999,"REV_AT_EPOCH":377,"BSTAR":0.00031050732,"MEAN_MOTION_DOT":6.276e-5,"MEAN_MOTION_DDOT":0},{"OBJECT_NAME":"HAWK-14A","OBJECT_ID":"2026-067AJ","EPOCH":"2026-04-24T11:49:09.407136","MEAN_MOTION":15.17836117,"ECCENTRICITY":0.00013603,"INCLINATION":97.4573,"RA_OF_ASC_NODE":73.7678,"ARG_OF_PERICENTER":256.5822,"MEAN_ANOMALY":103.526,"EPHEMERIS_TYPE":0,"CLASSIFICATION_TYPE":"U","NORAD_CAT_ID":68448,"ELEMENT_SET_NO":999,"REV_AT_EPOCH":379,"BSTAR":0.00010268069,"MEAN_MOTION_DOT":2.01e-5,"MEAN_MOTION_DDOT":0}]
