T.MICROSAT-2            
1 68433U 26067T   26114.17451121  .00004352  00000+0  22443-3 0  9992
2 68433  97.4535  73.4128 0003941 240.5857 119.4984 15.16867846  3744
TRANSPORTER-16 OBJECT U 
1 68434U 26067U   26114.35011177  .00003521  00000+0  17539-3 0  9993
2 68434  97.4544  73.6389 0002902 123.3264 236.8248 15.18215345  3775
ION SCV-019 (ASTOUNDIN*)
1 68435U 26067V   26114.35894849  .00002717  00000+0  13833-3 0  9998
2 68435  97.4513  73.6186 0001468 185.6276 174.4942 15.17653180  3777
HAWK-14B                
1 68436U 26067W   26114.35998342  .00003486  00000+0  17578-3 0  9996
2 68436  97.4510  73.6167 0001571 186.7518 173.3695 15.17795123  3777
TRANSPORTER-16 OBJECT X 
1 68437U 26067X   26113.62929327  .00010402  00000+0  51259-3 0  9993
2 68437  97.4474  72.8956 0001584 168.1207 192.0065 15.18133288  3663
TRANSPORTER-16 OBJECT Y 
1 68438U 26067Y   26114.28824842  .00014550  00000+0  71309-3 0  9999
2 68438  97.4489  73.5511 0002025 182.2953 177.8273 15.18241674  3763
TRANSPORTER-16 OBJECT Z 
1 68439U 26067Z   26114.35720289  .00012291  00000+0  60715-3 0  9997
2 68439  97.4483  73.6106 0001027 181.7068 178.4163 15.18006933  3774
TRANSPORTER-16 OBJECT AA
1 68440U 26067AA  26114.35596664  .00016306  00000+0  80008-3 0  9995
2 68440  97.4482  73.6115 0001167 180.9660 179.1572 15.18174450  3771
HAWK-14C                
1 68441U 26067AB  26114.36019987  .00003132  00000+0  15830-3 0  9999
2 68441  97.4453  73.5859 0000736 247.9948 112.1208 15.17791721  3776
TRANSPORTER-16 OBJECT AC
1 68442U 26067AC  26114.16960328  .00004756  00000+0  24279-3 0  9992
2 68442  97.4504  73.4095 0002553 247.2647 112.8317 15.17181669  3742
TRANSPORTER-16 OBJECT AD
1 68443U 26067AD  26114.63229386  .00004417  00000+0  22616-3 0  9994
2 68443  97.4511  73.8647 0002744 250.0970 109.9968 15.17112536  3815
TRANSPORTER-16 OBJECT AE
1 68444U 26067AE  26114.35051196  .00004997  00000+0  24744-3 0  9993
2 68444  97.4537  73.6362 0002702 127.4833 232.6647 15.18229583  3770
TRANSPORTER-16 OBJECT AF
1 68445U 26067AF  26113.71126706  .00003337  00000+0  17254-3 0  9998
2 68445  97.4484  72.9444 0003129 266.2281  93.8594 15.16940642  3679
HADES-SA (SPINNYONE)    
1 68446U 26067AG  26113.57965593  .00014160  00000+0  71504-3 0  9992
2 68446  97.4374  72.7854 0004613 262.3790  97.6920 15.17192733  3645
TRANSPORTER-16 OBJECT AH
1 68447U 26067AH  26114.35217322  .00006276  00000+0  31051-3 0  9992
2 68447  97.4487  73.6188 0002057 125.4664 234.6762 15.18160779  3777
HAWK-14A                
1 68448U 26067AJ  26114.49246999  .00002010  00000+0  10268-3 0  9999
2 68448  97.4573  73.7678 0001360 256.5822 103.5260 15.17836117  3791
